CCSDS_OMM_VERS = 2.0
CREATION_DATE  = 
ORIGINATOR     = 

OBJECT_NAME    = XRISM
OBJECT_ID      = 2023-137A
CENTER_NAME    = EARTH
REF_FRAME      = TEME
TIME_SYSTEM    = UTC
MEAN_ELEMENT_THEORY = SGP/SGP4

EPOCH          = 2026-03-13T22:23:27.907296
MEAN_MOTION    = 15.11550993
ECCENTRICITY   = .00079328
INCLINATION    = 31.0009
RA_OF_ASC_NODE = 256.2169
ARG_OF_PERICENTER = 81.2969
MEAN_ANOMALY   = 278.8568

EPHEMERIS_TYPE = 0
CLASSIFICATION_TYPE = U
NORAD_CAT_ID   = 57800
ELEMENT_SET_NO = 999
REV_AT_EPOCH   = 13843
BSTAR          = .34552207E-3
MEAN_MOTION_DOT = .6106E-4
MEAN_MOTION_DDOT = 0

CCSDS_OMM_VERS = 2.0
CREATION_DATE  = 
ORIGINATOR     = 

OBJECT_NAME    = ACS3
OBJECT_ID      = 2024-077B
CENTER_NAME    = EARTH
REF_FRAME      = TEME
TIME_SYSTEM    = UTC
MEAN_ELEMENT_THEORY = SGP/SGP4

EPOCH          = 2026-03-13T07:32:06.160416
MEAN_MOTION    = 13.89761996
ECCENTRICITY   = .00627907
INCLINATION    = 97.2045
RA_OF_ASC_NODE = 12.6111
ARG_OF_PERICENTER = 67.8385
MEAN_ANOMALY   = 292.9427

EPHEMERIS_TYPE = 0
CLASSIFICATION_TYPE = U
NORAD_CAT_ID   = 59588
ELEMENT_SET_NO = 999
REV_AT_EPOCH   = 9470
BSTAR          = .11846763E-1
MEAN_MOTION_DOT = .14774E-3
MEAN_MOTION_DDOT = 0

CCSDS_OMM_VERS = 2.0
CREATION_DATE  = 
ORIGINATOR     = 

OBJECT_NAME    = SZ-21 MODULE
OBJECT_ID      = 2025-246C
CENTER_NAME    = EARTH
REF_FRAME      = TEME
TIME_SYSTEM    = UTC
MEAN_ELEMENT_THEORY = SGP/SGP4

EPOCH          = 2026-03-13T13:47:50.452800
MEAN_MOTION    = 15.68874146
ECCENTRICITY   = .00010106
INCLINATION    = 41.4731
RA_OF_ASC_NODE = 179.4377
ARG_OF_PERICENTER = 309.0341
MEAN_ANOMALY   = 51.0410

EPHEMERIS_TYPE = 0
CLASSIFICATION_TYPE = U
NORAD_CAT_ID   = 66515
ELEMENT_SET_NO = 999
REV_AT_EPOCH   = 1868
BSTAR          = .36004804E-3
MEAN_MOTION_DOT = .42463E-3
MEAN_MOTION_DDOT = 0

